{
    "links": {
        "self": "http://www.neowsapp.com/rest/v1/neo/3991698?api_key=iIulBulltgU6a56xZRHN4H3l9WmuAYTsLGpBGhQ2"
    },
    "id": "3991698",
    "neo_reference_id": "3991698",
    "name": "(2020 DW1)",
    "designation": "2020 DW1",
    "nasa_jpl_url": "http://ssd.jpl.nasa.gov/sbdb.cgi?sstr=3991698",
    "absolute_magnitude_h": 27.33,
    "estimated_diameter": {
        "kilometers": {
            "estimated_diameter_min": 0.0090898136,
            "estimated_diameter_max": 0.0203254411
        },
        "meters": {
            "estimated_diameter_min": 9.089813582,
            "estimated_diameter_max": 20.3254410722
        },
        "miles": {
            "estimated_diameter_min": 0.0056481466,
            "estimated_diameter_max": 0.0126296396
        },
        "feet": {
            "estimated_diameter_min": 29.8222239924,
            "estimated_diameter_max": 66.6845200873
        }
    },
    "is_potentially_hazardous_asteroid": false,
    "close_approach_data": [
        {
            "close_approach_date": "2020-02-23",
            "close_approach_date_full": "2020-Feb-23 18:04",
            "epoch_date_close_approach": 1582481040000,
            "relative_velocity": {
                "kilometers_per_second": "7.0353044423",
                "kilometers_per_hour": "25327.0959921347",
                "miles_per_hour": "15737.2725068906"
            },
            "miss_distance": {
                "astronomical": "0.0174044125",
                "lunar": "6.7703164625",
                "kilometers": "2603663.038601375",
                "miles": "1617841.191893975"
            },
            "orbiting_body": "Earth"
        }
    ],
    "orbital_data": {
        "orbit_id": "2",
        "orbit_determination_date": "2020-02-25 11:53:09",
        "first_observation_date": "2020-02-18",
        "last_observation_date": "2020-02-25",
        "data_arc_in_days": 7,
        "observations_used": 20,
        "orbit_uncertainty": "8",
        "minimum_orbit_intersection": ".00558267",
        "jupiter_tisserand_invariant": "4.441",
        "epoch_osculation": "2458898.5",
        "eccentricity": ".357714034686742",
        "semi_major_axis": "1.513881263528434",
        "inclination": "5.051691996582906",
        "ascending_node_longitude": "155.3860813648655",
        "orbital_period": "680.3558883195759",
        "perihelion_distance": ".9723446887150151",
        "perihelion_argument": "26.22874073250679",
        "aphelion_distance": "2.055417838341854",
        "perihelion_time": "2458925.808172075652",
        "mean_anomaly": "345.5502949029862",
        "mean_motion": ".5291348339604599",
        "equinox": "J2000",
        "orbit_class": {
            "orbit_class_type": "APO",
            "orbit_class_description": "Near-Earth asteroid orbits which cross the Earth’s orbit similar to that of 1862 Apollo",
            "orbit_class_range": "a (semi-major axis) > 1.0 AU; q (perihelion) < 1.017 AU"
        }
    },
    "is_sentry_object": false
}